STARLINK-2175_new
1 17757C 21017AM  21326.13282306  .00006610  00000-0  44291-3 0  3260
2 17757  53.0573  53.1461 0001293  80.8935 249.6612 15.06391314    17
STARLINK-2175_old
1 27757C 21017AM  21325.15313468 -.00003307  00000-0 -22151-3 0  3257
2 27757  53.0573  57.5436 0001275  80.3665 334.3252 15.06413084    13
